SARSAT 7 (NOAA 15)      
1 25338U 98030A   23007.57783969  .00000207  00000+0  10458-3 0  9996
2 25338  98.6244  39.2402 0011298  65.3447 294.8909 14.26218171282361
GPS BIIR-08             
1 27663U 03005A   23006.71752677  .00000017  00000+0  00000+0 0  9991
2 27663  55.3806 264.9851 0131032  42.3258 336.0057  2.00552734146094
GPS BIIR-11             
1 28190U 04009A   23007.01272591 -.00000083  00000+0  00000+0 0  9992
2 28190  55.8721 325.9993 0088329 128.4381 258.7192  2.00572882137736
GPS BIIR-13             
1 28474U 04045A   23007.18126089 -.00000084  00000+0  00000+0 0  9996
2 28474  55.4085  15.2848 0202959 282.8950  78.0460  2.00562075133226
SARSAT 10 (NOAA 18)     
1 28654U 05018A   23007.59728155  .00000246  00000+0  15623-3 0  9994
2 28654  98.9288  82.6611 0015167 113.7634 246.5130 14.12834694908897
GPS BIIR-14M            
1 28874U 05038A   23007.01084604 -.00000081  00000+0  00000+0 0  9998
2 28874  55.9304 323.4412 0140295 277.6209 137.4642  2.00561934126624
METEOSAT-9 (MSG-2)      
1 28912U 05049B   23006.75814858  .00000135  00000+0  00000+0 0  9994
2 28912   6.4795  64.9466 0001636 191.9981 167.7849  1.00267724 62429
GOES 13                 
1 29155U 06018A   23007.55034837  .00000048  00000+0  00000+0 0  9994
2 29155   1.1020  93.0269 0005343 161.9194 111.7757  1.00264991 60910
GPS BIIR-16M            
1 29601U 06052A   23007.00257114  .00000019  00000+0  00000+0 0  9991
2 29601  55.3936 263.9205 0085929  75.5373 285.4932  2.00562590118193
GPS BIIR-17M            
1 32260U 07047A   23007.30422202 -.00000012  00000+0  00000+0 0  9990
2 32260  53.3765 132.0929 0145454  66.8566 294.6292  2.00564633111624
GPS BIIR-18M            
1 32384U 07062A   23007.39999167 -.00000079  00000+0  00000+0 0  9995
2 32384  56.0554 324.2142 0019702 144.6930  52.4902  2.00572869110363
SARSAT 12 (NOAA 19)     
1 33591U 09005A   23007.55118339  .00000241  00000+0  15480-3 0  9999
2 33591  99.1241  50.7347 0013451 338.3938  21.6664 14.12662912717268
GOES 14                 
1 35491U 09033A   23007.58896247 -.00000080  00000+0  00000+0 0  9995
2 35491   0.1008 242.8840 0017452 345.4059 346.2737  1.00270050 49550
GOES 15                 
1 36411U 10008A   23007.51260591  .00000066  00000+0  00000+0 0  9995
2 36411   0.0560 291.4506 0003133 268.0802 323.8889  1.00265126 47051
GPS BIIF-2              
1 37753U 11036A   23006.92205802 -.00000079  00000+0  00000+0 0  9990
2 37753  56.6840  20.7922 0119824  52.9520 307.0373  2.00566705 84057
GSAT0101 (GALILEO-PFM)  
1 37846U 11060A   23005.62407031 -.00000080  00000+0  00000+0 0  9996
2 37846  57.0593  15.8459 0002921 328.4116  31.6048  1.70476153 69663
GSAT0102 (GALILEO-FM2)  
1 37847U 11060B   23005.54515008 -.00000080  00000+0  00000+0 0  9992
2 37847  57.0603  15.8476 0004654 310.8680  47.5391  1.70475468 69666
LUCH 5A                 
1 37951U 11074B   23007.27861557 -.00000040  00000+0  00000+0 0  9994
2 37951   5.5319  93.8871 0002379 174.1567 105.7783  1.00274001 40581
METEOSAT-10 (MSG-3)     
1 38552U 12035B   23007.10955500  .00000074  00000+0  00000+0 0  9990
2 38552   1.8620  50.8835 0001247 203.3650 261.1749  1.00276625 38251
SARSAT 13 (METOP-B)     
1 38771U 12049A   23007.63051587  .00000178  00000+0  10130-3 0  9992
2 38771  98.7035  69.5070 0001475 119.1089  35.7898 14.21493397534738
GPS BIIF-3              
1 38833U 12053A   23006.40745517  .00000068  00000+0  00000+0 0  9992
2 38833  53.5190 195.0428 0134700  49.6112 311.5820  2.00564141 74214
GSAT0103 (GALILEO-FM3)  
1 38857U 12055A   23006.83597096  .00000002  00000+0  00000+0 0  9992
2 38857  55.2007 136.1061 0002932 238.5284 121.3874  1.70473628 63719
GSAT0104 (GALILEO-FM4)  
1 38858U 12055B   23005.63259579 -.00000001  00000+0  00000+0 0  9991
2 38858  55.2011 136.1408 0001512 178.8839 181.0587  1.70473858 63556
GPS BIIF-4              
1 39166U 13023A   23006.76451666 -.00000079  00000+0  00000+0 0  9991
2 39166  55.5511 319.7442 0109453  38.4626 322.3069  2.00565258 70667
INSAT-3D                
1 39216U 13038B   23007.20327123 -.00000144  00000+0  00000+0 0  9996
2 39216   0.0436 247.6432 0001908  29.5574 344.5537  1.00271961 34492
GPS BIIF-5              
1 39533U 14008A   23006.76743658  .00000069  00000+0  00000+0 0  9996
2 39533  53.6093 200.5569 0061194 209.1334 150.5585  2.00564986 64460
LUCH 5V                 
1 39727U 14023A   23007.12655216 -.00000259  00000+0  00000+0 0  9993
2 39727   1.9898  77.2159 0003125 228.4170 301.1005  1.00272795 31750
GPS BIIF-6              
1 39741U 14026A   23007.04467193 -.00000079  00000+0  00000+0 0  9998
2 39741  56.6419  20.3121 0030215 306.4263  53.3340  2.00574383 63325
GPS BIIF-7              
1 40105U 14045A   23006.63701984 -.00000008  00000+0  00000+0 0  9990
2 40105  54.7424 138.6898 0023931 113.9951 246.2125  2.00560921 60854
GSAT0201 (GALILEO 5)    
1 40128U 14050A   23006.41163002 -.00000107  00000+0  00000+0 0  9990
2 40128  50.1385 324.1921 1613598 131.3835 243.6856  1.85519552 54989
GSAT0202 (GALILEO 6)    
1 40129U 14050B   23006.67190154 -.00000105  00000+0  00000+0 0  9995
2 40129  50.1603 323.2478 1610920 132.2048 242.6678  1.85520254 57156
GPS BIIF-8              
1 40294U 14068A   23006.50722984 -.00000055  00000+0  00000+0 0  9995
2 40294  55.9753  79.9261 0042225  57.6237 302.8313  2.00555536 59986
GLONASS-K 2             
1 40315U 14075A   23006.59457596  .00000078  00000+0  00000+0 0  9994
2 40315  63.6606 234.0645 0017196 205.9690  84.0071  2.13101359 63050
GPS BIIF-9              
1 40534U 15013A   23006.64419029  .00000031  00000+0  00000+0 0  9994
2 40534  53.5831 256.2735 0076346  22.9404 337.4849  2.00569574 57020
GSAT0203 (GALILEO 7)    
1 40544U 15017A   23004.81687127 -.00000082  00000+0  00000+0 0  9999
2 40544  56.8553  15.8734 0005147 264.0322  95.9443  1.70476099 47733
GSAT0204 (GALILEO 8)    
1 40545U 15017B   23002.13717368 -.00000085  00000+0  00000+0 0  9997
2 40545  56.8590  15.9598 0004744 252.9017 107.0834  1.70475624 10735
GPS BIIF-10             
1 40730U 15033A   23006.80286386 -.00000078  00000+0  00000+0 0  9992
2 40730  55.0444 318.4734 0080718   9.2111 350.9321  2.00567639 54770
METEOSAT-11 (MSG-4)     
1 40732U 15034A   23007.14560164  .00000010  00000+0  00000+0 0  9997
2 40732   0.4652   0.8845 0000686  71.7085  86.4943  1.00276438 27417
GSAT0205 (GALILEO 9)    
1 40889U 15045A   23006.59800484  .00000030  00000+0  00000+0 0  9994
2 40889  55.4966 256.3519 0006753  30.1412 329.9919  1.70472853 45579
GSAT0206 (GALILEO 10)   
1 40890U 15045B   23005.05890542  .00000025  00000+0  00000+0 0  9994
2 40890  55.4966 256.3902 0004242  11.8522 348.2456  1.70473150 45577
GPS BIIF-11             
1 41019U 15062A   23006.35751705 -.00000056  00000+0  00000+0 0  9993
2 41019  55.9617  79.7784 0085165 219.8808 139.5361  2.00562492 52604
ELEKTRO-L 2             
1 41105U 15074A   23007.39153375 -.00000107  00000+0  00000+0 0  9993
2 41105   3.5010  85.7489 0002478 161.8517 345.5570  1.00270636 25914
GSAT0209 (GALILEO 12)   
1 41174U 15079A   23005.23160160 -.00000002  00000+0  00000+0 0  9999
2 41174  55.2174 135.8553 0002010 315.2555  44.6706  1.70474770 43317
GSAT0208 (GALILEO 11)   
1 41175U 15079B   23005.45112115 -.00000002  00000+0  00000+0 0  9991
2 41175  55.2163 135.8478 0001340 317.7315  42.2005  1.70474699 43897
GPS BIIF-12             
1 41328U 16007A   23006.94280374 -.00000005  00000+0  00000+0 0  9994
2 41328  54.9541 139.3982 0066053 230.6326 128.7393  2.00561160 50666
GSAT0211 (GALILEO 14)   
1 41549U 16030A   23006.15777541  .00000029  00000+0  00000+0 0  9990
2 41549  55.6427 256.3141 0004547 355.7815   4.3076  1.70473103 41225
GSAT0210 (GALILEO 13)   
1 41550U 16030B   23005.86316102  .00000028  00000+0  00000+0 0  9990
2 41550  55.6418 256.3238 0002932 333.7032  26.3737  1.70474649 41210
INSAT-3DR               
1 41752U 16054A   23007.23105161 -.00000065  00000+0  00000+0 0  9996
2 41752   0.0612  93.6483 0014153 178.6328 351.4241  1.00271923 23215
GSAT0207 (GALILEO 15)   
1 41859U 16069A   23005.52563583 -.00000002  00000+0  00000+0 0  9997
2 41859  54.8791 135.9786 0002230 285.9217  73.9960  1.70474663 38163
GSAT0212 (GALILEO 16)   
1 41860U 16069B   23003.03315332  .00000004  00000+0  00000+0 0  9991
2 41860  54.8759 136.0448 0001056 358.1472   1.7999  1.70473324 38150
GSAT0213 (GALILEO 17)   
1 41861U 16069C   23004.57153731 -.00000002  00000+0  00000+0 0  9994
2 41861  54.8786 136.0078 0002635 249.2762 110.6386  1.70473530 38177
GSAT0214 (GALILEO 18)   
1 41862U 16069D   23004.71871122 -.00000002  00000+0  00000+0 0  9992
2 41862  54.8770 135.9980 0001694 243.1410 116.7844  1.70473563 38170
GOES 16                 
1 41866U 16071A   23007.59480252 -.00000236  00000+0  00000+0 0  9997
2 41866   0.0771 248.4939 0001020  65.8611 291.4605  1.00270635 22512
GSAT-17                 
1 42815U 17040B   23007.24615300 -.00000246  00000+0  00000+0 0  9996
2 42815   0.0823  98.0727 0006490 175.5008  15.0701  1.00272792 20188
GSAT0215 (GALILEO 19)   
1 43055U 17079A   23005.79556366  .00000028  00000+0  00000+0 0  9996
2 43055  55.6180 256.1536 0002115   2.3005 357.7921  1.70473378 31537
GSAT0216 (GALILEO 20)   
1 43056U 17079B   23006.67419526  .00000031  00000+0  00000+0 0  9995
2 43056  55.6183 256.1294 0003645 314.6278  45.4373  1.70474047 31561
GSAT0217 (GALILEO 21)   
1 43057U 17079C   23006.89449607  .00000031  00000+0  00000+0 0  9993
2 43057  55.6162 256.1226 0003684 332.4785  27.5973  1.70472395 31558
GSAT0218 (GALILEO 22)   
1 43058U 17079D   23003.59500741  .00000018  00000+0  00000+0 0  9990
2 43058  55.6181 256.2111 0003389 314.8602  45.1919  1.70473918 31523
GOES 17                 
1 43226U 18022A   23007.43126654  .00000111  00000+0  00000+0 0  9994
2 43226   0.0088 272.6987 0000567  83.9814 127.9526  1.00265989 17838
GSAT0221 (GALILEO 25)   
1 43564U 18060A   23006.42633686 -.00000078  00000+0  00000+0 0  9990
2 43564  57.2361  15.6968 0005659 279.5894  80.3787  1.70475995 27720
